[{"OBJECT_NAME":"STARLINK-4293","OBJECT_ID":"2022-076D","EPOCH":"2025-11-23T02:25:13.681056","MEAN_MOTION":15.08832019,"ECCENTRICITY":0.0001644,"INCLINATION":53.2171,"RA_OF_ASC_NODE":222.6125,"ARG_OF_PERICENTER":79.7105,"MEAN_ANOMALY":280.4072,"EPHEMERIS_TYPE":0,"CLASSIFICATION_TYPE":"U","NORAD_CAT_ID":52989,"ELEMENT_SET_NO":999,"REV_AT_EPOCH":18661,"BSTAR":1.5329e-5,"MEAN_MOTION_DOT":-4.4e-7,"MEAN_MOTION_DDOT":0},{"OBJECT_NAME":"STARLINK-4286","OBJECT_ID":"2022-076E","EPOCH":"2025-11-23T02:19:54.217056","MEAN_MOTION":15.08837331,"ECCENTRICITY":0.0001533,"INCLINATION":53.2181,"RA_OF_ASC_NODE":222.6289,"ARG_OF_PERICENTER":91.6569,"MEAN_ANOMALY":268.4599,"EPHEMERIS_TYPE":0,"CLASSIFICATION_TYPE":"U","NORAD_CAT_ID":52990,"ELEMENT_SET_NO":999,"REV_AT_EPOCH":18661,"BSTAR":-4.4276e-5,"MEAN_MOTION_DOT":-9.93e-6,"MEAN_MOTION_DDOT":0},{"OBJECT_NAME":"STARLINK-4285","OBJECT_ID":"2022-076F","EPOCH":"2025-11-23T02:14:36.625344","MEAN_MOTION":15.08835744,"ECCENTRICITY":0.0001272,"INCLINATION":53.2148,"RA_OF_ASC_NODE":222.651,"ARG_OF_PERICENTER":83.0376,"MEAN_ANOMALY":277.0761,"EPHEMERIS_TYPE":0,"CLASSIFICATION_TYPE":"U","NORAD_CAT_ID":52991,"ELEMENT_SET_NO":999,"REV_AT_EPOCH":18661,"BSTAR":-0.00013382,"MEAN_MOTION_DOT":-2.417e-5,"MEAN_MOTION_DDOT":0},{"OBJECT_NAME":"STARLINK-4269","OBJECT_ID":"2022-076G","EPOCH":"2025-11-23T02:10:42.056256","MEAN_MOTION":15.08815443,"ECCENTRICITY":0.0001454,"INCLINATION":53.2171,"RA_OF_ASC_NODE":222.6674,"ARG_OF_PERICENTER":92.9886,"MEAN_ANOMALY":267.1272,"EPHEMERIS_TYPE":0,"CLASSIFICATION_TYPE":"U","NORAD_CAT_ID":52992,"ELEMENT_SET_NO":999,"REV_AT_EPOCH":18661,"BSTAR":0.00013863,"MEAN_MOTION_DOT":1.918e-5,"MEAN_MOTION_DDOT":0},{"OBJECT_NAME":"STARLINK-4264","OBJECT_ID":"2022-076H","EPOCH":"2025-11-23T01:22:56.532000","MEAN_MOTION":15.08831073,"ECCENTRICITY":0.0001362,"INCLINATION":53.216,"RA_OF_ASC_NODE":212.8084,"ARG_OF_PERICENTER":90.6539,"MEAN_ANOMALY":269.4609,"EPHEMERIS_TYPE":0,"CLASSIFICATION_TYPE":"U","NORAD_CAT_ID":52993,"ELEMENT_SET_NO":999,"REV_AT_EPOCH":18674,"BSTAR":-1.4112e-5,"MEAN_MOTION_DOT":-5.12e-6,"MEAN_MOTION_DDOT":0},{"OBJECT_NAME":"STARLINK-4256","OBJECT_ID":"2022-076J","EPOCH":"2025-11-23T01:17:38.638752","MEAN_MOTION":15.08831849,"ECCENTRICITY":0.0001248,"INCLINATION":53.2161,"RA_OF_ASC_NODE":212.8252,"ARG_OF_PERICENTER":98.6397,"MEAN_ANOMALY":261.4737,"EPHEMERIS_TYPE":0,"CLASSIFICATION_TYPE":"U","NORAD_CAT_ID":52994,"ELEMENT_SET_NO":999,"REV_AT_EPOCH":18674,"BSTAR":1.1196e-5,"MEAN_MOTION_DOT":-1.1e-6,"MEAN_MOTION_DDOT":0},{"OBJECT_NAME":"STARLINK-4296","OBJECT_ID":"2022-076K","EPOCH":"2025-11-23T01:07:02.802144","MEAN_MOTION":15.08833032,"ECCENTRICITY":0.0001713,"INCLINATION":53.2181,"RA_OF_ASC_NODE":212.8583,"ARG_OF_PERICENTER":88.2793,"MEAN_ANOMALY":271.8395,"EPHEMERIS_TYPE":0,"CLASSIFICATION_TYPE":"U","NORAD_CAT_ID":52995,"ELEMENT_SET_NO":999,"REV_AT_EPOCH":18674,"BSTAR":-3.5828e-5,"MEAN_MOTION_DOT":-8.58e-6,"MEAN_MOTION_DDOT":0},{"OBJECT_NAME":"STARLINK-4295","OBJECT_ID":"2022-076L","EPOCH":"2025-11-23T00:15:28.506240","MEAN_MOTION":15.08837629,"ECCENTRICITY":0.0001636,"INCLINATION":53.2156,"RA_OF_ASC_NODE":213.3036,"ARG_OF_PERICENTER":92.2729,"MEAN_ANOMALY":267.845,"EPHEMERIS_TYPE":0,"CLASSIFICATION_TYPE":"U","NORAD_CAT_ID":52996,"ELEMENT_SET_NO":999,"REV_AT_EPOCH":18673,"BSTAR":-1.6944e-5,"MEAN_MOTION_DOT":-5.58e-6,"MEAN_MOTION_DDOT":0},{"OBJECT_NAME":"STARLINK-4254","OBJECT_ID":"2022-076N","EPOCH":"2025-11-23T02:26:30.857856","MEAN_MOTION":15.0883456,"ECCENTRICITY":0.0001745,"INCLINATION":53.217,"RA_OF_ASC_NODE":212.5227,"ARG_OF_PERICENTER":97.7998,"MEAN_ANOMALY":262.3192,"EPHEMERIS_TYPE":0,"CLASSIFICATION_TYPE":"U","NORAD_CAT_ID":52998,"ELEMENT_SET_NO":999,"REV_AT_EPOCH":18675,"BSTAR":-3.0332e-5,"MEAN_MOTION_DOT":-7.71e-6,"MEAN_MOTION_DDOT":0},{"OBJECT_NAME":"STARLINK-4217","OBJECT_ID":"2022-076P","EPOCH":"2025-11-23T02:15:55.524960","MEAN_MOTION":15.08839556,"ECCENTRICITY":0.0001362,"INCLINATION":53.2168,"RA_OF_ASC_NODE":212.6461,"ARG_OF_PERICENTER":96.4233,"MEAN_ANOMALY":263.6914,"EPHEMERIS_TYPE":0,"CLASSIFICATION_TYPE":"U","NORAD_CAT_ID":52999,"ELEMENT_SET_NO":999,"REV_AT_EPOCH":18675,"BSTAR":-5.013e-5,"MEAN_MOTION_DOT":-1.086e-5,"MEAN_MOTION_DDOT":0},{"OBJECT_NAME":"STARLINK-4194","OBJECT_ID":"2022-076Q","EPOCH":"2025-11-23T01:01:44.678208","MEAN_MOTION":15.08831885,"ECCENTRICITY":0.000136,"INCLINATION":53.2164,"RA_OF_ASC_NODE":212.8733,"ARG_OF_PERICENTER":85.3062,"MEAN_ANOMALY":274.8085,"EPHEMERIS_TYPE":0,"CLASSIFICATION_TYPE":"U","NORAD_CAT_ID":53000,"ELEMENT_SET_NO":999,"REV_AT_EPOCH":18674,"BSTAR":-5.1984e-5,"MEAN_MOTION_DOT":-1.115e-5,"MEAN_MOTION_DDOT":0},{"OBJECT_NAME":"STARLINK-4190","OBJECT_ID":"2022-076R","EPOCH":"2025-11-23T02:10:38.411904","MEAN_MOTION":15.08819381,"ECCENTRICITY":0.0001759,"INCLINATION":53.2153,"RA_OF_ASC_NODE":212.6593,"ARG_OF_PERICENTER":71.0881,"MEAN_ANOMALY":289.0302,"EPHEMERIS_TYPE":0,"CLASSIFICATION_TYPE":"U","NORAD_CAT_ID":53001,"ELEMENT_SET_NO":999,"REV_AT_EPOCH":18675,"BSTAR":0.00012344,"MEAN_MOTION_DOT":1.676e-5,"MEAN_MOTION_DDOT":0},{"OBJECT_NAME":"STARLINK-4121","OBJECT_ID":"2022-076S","EPOCH":"2025-11-23T02:31:49.982304","MEAN_MOTION":15.08831949,"ECCENTRICITY":0.0001647,"INCLINATION":53.2169,"RA_OF_ASC_NODE":212.5934,"ARG_OF_PERICENTER":94.4188,"MEAN_ANOMALY":265.6993,"EPHEMERIS_TYPE":0,"CLASSIFICATION_TYPE":"U","NORAD_CAT_ID":53002,"ELEMENT_SET_NO":999,"REV_AT_EPOCH":18675,"BSTAR":-4.6437e-5,"MEAN_MOTION_DOT":-1.027e-5,"MEAN_MOTION_DDOT":0},{"OBJECT_NAME":"STARLINK-4255","OBJECT_ID":"2022-076T","EPOCH":"2025-11-22T22:49:15.941280","MEAN_MOTION":15.08838866,"ECCENTRICITY":0.0001813,"INCLINATION":53.2171,"RA_OF_ASC_NODE":213.2872,"ARG_OF_PERICENTER":71.9817,"MEAN_ANOMALY":288.1373,"EPHEMERIS_TYPE":0,"CLASSIFICATION_TYPE":"U","NORAD_CAT_ID":53003,"ELEMENT_SET_NO":999,"REV_AT_EPOCH":18673,"BSTAR":0.00040557,"MEAN_MOTION_DOT":6.172e-5,"MEAN_MOTION_DDOT":0},{"OBJECT_NAME":"STARLINK-4253","OBJECT_ID":"2022-076U","EPOCH":"2025-11-22T23:10:27.437376","MEAN_MOTION":15.08836129,"ECCENTRICITY":0.0001458,"INCLINATION":53.217,"RA_OF_ASC_NODE":213.2144,"ARG_OF_PERICENTER":94.5457,"MEAN_ANOMALY":265.5702,"EPHEMERIS_TYPE":0,"CLASSIFICATION_TYPE":"U","NORAD_CAT_ID":53004,"ELEMENT_SET_NO":999,"REV_AT_EPOCH":18673,"BSTAR":-9.1499e-5,"MEAN_MOTION_DOT":-1.744e-5,"MEAN_MOTION_DDOT":0},{"OBJECT_NAME":"STARLINK-4288","OBJECT_ID":"2022-076V","EPOCH":"2025-11-23T01:54:44.061696","MEAN_MOTION":15.08834448,"ECCENTRICITY":0.0001531,"INCLINATION":53.2161,"RA_OF_ASC_NODE":212.7122,"ARG_OF_PERICENTER":82.7992,"MEAN_ANOMALY":277.3174,"EPHEMERIS_TYPE":0,"CLASSIFICATION_TYPE":"U","NORAD_CAT_ID":53005,"ELEMENT_SET_NO":999,"REV_AT_EPOCH":18675,"BSTAR":-3.2816e-5,"MEAN_MOTION_DOT":-8.1e-6,"MEAN_MOTION_DDOT":0},{"OBJECT_NAME":"STARLINK-4290","OBJECT_ID":"2022-076W","EPOCH":"2025-11-23T02:05:19.847328","MEAN_MOTION":15.08836602,"ECCENTRICITY":0.000196,"INCLINATION":53.2166,"RA_OF_ASC_NODE":212.675,"ARG_OF_PERICENTER":61.5027,"MEAN_ANOMALY":298.6163,"EPHEMERIS_TYPE":0,"CLASSIFICATION_TYPE":"U","NORAD_CAT_ID":53006,"ELEMENT_SET_NO":999,"REV_AT_EPOCH":18675,"BSTAR":-1.8729e-5,"MEAN_MOTION_DOT":-5.86e-6,"MEAN_MOTION_DDOT":0}]
