[{"norad_id":"52989","company":"STARLINK","tle_line2":"2 52989  53.2171 222.6125 0001644  79.7105 280.4072 15.08832019186610","launch_date":"2022-07-07","type":"LEO","tle_line1":"1 52989U 22076D   25327.10085279 -.00000044  00000+0  15329-4 0  9993","satellite_name":"STARLINK-4293"},{"norad_id":"52990","company":"STARLINK","tle_line2":"2 52990  53.2181 222.6289 0001533  91.6569 268.4599 15.08837331186610","launch_date":"2022-07-07","type":"LEO","tle_line1":"1 52990U 22076E   25327.09715529 -.00000993  00000+0 -44276-4 0  9998","satellite_name":"STARLINK-4286"},{"norad_id":"52991","company":"STARLINK","tle_line2":"2 52991  53.2148 222.6510 0001272  83.0376 277.0761 15.08835744186615","launch_date":"2022-07-07","type":"LEO","tle_line1":"1 52991U 22076F   25327.09347946 -.00002417  00000+0 -13382-3 0  9999","satellite_name":"STARLINK-4285"},{"norad_id":"52992","company":"STARLINK","tle_line2":"2 52992  53.2171 222.6674 0001454  92.9886 267.1272 15.08815443186611","launch_date":"2022-07-07","type":"LEO","tle_line1":"1 52992U 22076G   25327.09076454  .00001918  00000+0  13863-3 0  9990","satellite_name":"STARLINK-4269"},{"norad_id":"52993","company":"STARLINK","tle_line2":"2 52993  53.2160 212.8084 0001362  90.6539 269.4609 15.08831073186744","launch_date":"2022-07-07","type":"LEO","tle_line1":"1 52993U 22076H   25327.05759875 -.00000512  00000+0 -14112-4 0  9992","satellite_name":"STARLINK-4264"},{"norad_id":"52994","company":"STARLINK","tle_line2":"2 52994  53.2161 212.8252 0001248  98.6397 261.4737 15.08831849186741","launch_date":"2022-07-07","type":"LEO","tle_line1":"1 52994U 22076J   25327.05391943 -.00000110  00000+0  11196-4 0  9993","satellite_name":"STARLINK-4256"},{"norad_id":"52995","company":"STARLINK","tle_line2":"2 52995  53.2181 212.8583 0001713  88.2793 271.8395 15.08833032186744","launch_date":"2022-07-07","type":"LEO","tle_line1":"1 52995U 22076K   25327.04656021 -.00000858  00000+0 -35828-4 0  9992","satellite_name":"STARLINK-4296"},{"norad_id":"52996","company":"STARLINK","tle_line2":"2 52996  53.2156 213.3036 0001636  92.2729 267.8450 15.08837629186736","launch_date":"2022-07-07","type":"LEO","tle_line1":"1 52996U 22076L   25327.01074660 -.00000558  00000+0 -16944-4 0  9998","satellite_name":"STARLINK-4295"},{"norad_id":"52998","company":"STARLINK","tle_line2":"2 52998  53.2170 212.5227 0001745  97.7998 262.3192 15.08834560186752","launch_date":"2022-07-07","type":"LEO","tle_line1":"1 52998U 22076N   25327.10174604 -.00000771  00000+0 -30332-4 0  9993","satellite_name":"STARLINK-4254"},{"norad_id":"52999","company":"STARLINK","tle_line2":"2 52999  53.2168 212.6461 0001362  96.4233 263.6914 15.08839556186750","launch_date":"2022-07-07","type":"LEO","tle_line1":"1 52999U 22076P   25327.09439265 -.00001086  00000+0 -50130-4 0  9997","satellite_name":"STARLINK-4217"},{"norad_id":"53000","company":"STARLINK","tle_line2":"2 53000  53.2164 212.8733 0001360  85.3062 274.8085 15.08831885186748","launch_date":"2022-07-07","type":"LEO","tle_line1":"1 53000U 22076Q   25327.04287822 -.00001115  00000+0 -51984-4 0  9997","satellite_name":"STARLINK-4194"},{"norad_id":"53001","company":"STARLINK","tle_line2":"2 53001  53.2153 212.6593 0001759  71.0881 289.0302 15.08819381186750","launch_date":"2022-07-07","type":"LEO","tle_line1":"1 53001U 22076R   25327.09072236  .00001676  00000+0  12344-3 0  9990","satellite_name":"STARLINK-4190"},{"norad_id":"53002","company":"STARLINK","tle_line2":"2 53002  53.2169 212.5934 0001647  94.4188 265.6993 15.08831949186751","launch_date":"2022-07-07","type":"LEO","tle_line1":"1 53002U 22076S   25327.10543961 -.00001027  00000+0 -46437-4 0  9994","satellite_name":"STARLINK-4121"},{"norad_id":"53003","company":"STARLINK","tle_line2":"2 53003  53.2171 213.2872 0001813  71.9817 288.1373 15.08838866186733","launch_date":"2022-07-07","type":"LEO","tle_line1":"1 53003U 22076T   25326.95087895  .00006172  00000+0  40557-3 0  9996","satellite_name":"STARLINK-4255"},{"norad_id":"53004","company":"STARLINK","tle_line2":"2 53004  53.2170 213.2144 0001458  94.5457 265.5702 15.08836129186736","launch_date":"2022-07-07","type":"LEO","tle_line1":"1 53004U 22076U   25326.96559534 -.00001744  00000+0 -91499-4 0  9996","satellite_name":"STARLINK-4253"},{"norad_id":"53005","company":"STARLINK","tle_line2":"2 53005  53.2161 212.7122 0001531  82.7992 277.3174 15.08834448186750","launch_date":"2022-07-07","type":"LEO","tle_line1":"1 53005U 22076V   25327.07967664 -.00000810  00000+0 -32816-4 0  9998","satellite_name":"STARLINK-4288"},{"norad_id":"53006","company":"STARLINK","tle_line2":"2 53006  53.2166 212.6750 0001960  61.5027 298.6163 15.08836602186750","launch_date":"2022-07-07","type":"LEO","tle_line1":"1 53006U 22076W   25327.08703527 -.00000586  00000+0 -18729-4 0  9993","satellite_name":"STARLINK-4290"}]